{"type":"FeatureCollection","features":[{"type":"Feature","id":1,"geometry":{"type":"MultiPolygon","coordinates":[[[[-71.19082,42.283149],[-71.190809,42.282818],[-71.190632,42.282455],[-71.190291,42.282059],[-71.189684,42.281943],[-71.188812,42.282107],[-71.188739,42.282056],[-71.189467,42.28179],[-71.189391,42.281434],[-71.188513,42.280989],[-71.187435,42.280571],[-71.186157,42.280181],[-71.1854,42.279829],[-71.185162,42.279516],[-71.184867,42.279355],[-71.184515,42.279346],[-71.184159,42.279143],[-71.1838,42.278746],[-71.183429,42.278474],[-71.183044,42.278329],[-71.182846,42.278178],[-71.182836,42.278021],[-71.182984,42.277684],[-71.183291,42.277167],[-71.183357,42.276797],[-71.183183,42.276575],[-71.182953,42.276428],[-71.182667,42.276357],[-71.182332,42.27636],[-71.181949,42.276435],[-71.181619,42.276533],[-71.181341,42.276653],[-71.181015,42.276926],[-71.180641,42.277351],[-71.180139,42.277539],[-71.17951,42.27749],[-71.178832,42.277613],[-71.178107,42.277908],[-71.177435,42.278028],[-71.176817,42.277971],[-71.176299,42.277857],[-71.175881,42.277687],[-71.175563,42.277392999999996],[-71.175346,42.276976],[-71.175016,42.276679],[-71.174572,42.276503],[-71.174224,42.27629],[-71.173973,42.276042],[-71.173827,42.2758],[-71.173788,42.275565],[-71.17398,42.275125],[-71.174404,42.274479],[-71.174615,42.274018],[-71.174612,42.273741],[-71.174319,42.273142],[-71.173737,42.272221],[-71.173423,42.271535],[-71.173376,42.271085],[-71.173297,42.270874],[-71.173186,42.2709],[-71.173032,42.27073],[-71.172835,42.270362],[-71.172885,42.269952],[-71.173181,42.2695],[-71.173571,42.269099],[-71.174056,42.268748],[-71.174228,42.268249],[-71.174088,42.267602],[-71.173806,42.267168],[-71.173382,42.266947],[-71.172754,42.266737],[-71.17192,42.266538],[-71.171381,42.266115],[-71.171139,42.265466],[-71.170353,42.265224],[-71.169022,42.265388],[-71.169007,42.265363],[-71.170307,42.265149],[-71.167858,42.262561],[-71.161662,42.257599],[-71.156995,42.255916],[-71.153857,42.257513],[-71.150875,42.257664],[-71.148048,42.256368],[-71.145657,42.250806],[-71.143702,42.240978],[-71.139752,42.23402],[-71.133806,42.229932],[-71.130655,42.228099],[-71.130299,42.228521],[-71.129903,42.228801],[-71.129469,42.228939],[-71.129169,42.2292],[-71.129004,42.229584],[-71.128751,42.229901],[-71.128411,42.230151],[-71.128086,42.230499],[-71.127778,42.230944],[-71.127358,42.231206],[-71.126826,42.231286],[-71.126423,42.231459],[-71.126151,42.231724],[-71.125843,42.231907],[-71.125498,42.232007],[-71.125145,42.232275],[-71.124781,42.232711],[-71.12466,42.233113],[-71.124782,42.23348],[-71.124786,42.233785],[-71.12467,42.234028],[-71.124477,42.234204],[-71.124206,42.234314],[-71.123805,42.234346],[-71.123272,42.234301],[-71.122884,42.234353],[-71.122638,42.234502],[-71.122571,42.234751],[-71.122681,42.2351],[-71.123112,42.235559],[-71.123862,42.236129],[-71.124422,42.236692],[-71.124792,42.237247],[-71.125126,42.237558],[-71.125422,42.237625],[-71.125643,42.237729],[-71.125789,42.23787],[-71.126071,42.23833],[-71.126489,42.239107],[-71.126807,42.239929],[-71.127026,42.240794],[-71.127381,42.241313],[-71.127871,42.241487],[-71.12818,42.24166],[-71.128309,42.241833],[-71.128361,42.24204],[-71.128337,42.242283],[-71.128048,42.242945],[-71.127493,42.244029],[-71.127227,42.244665],[-71.127252,42.244854],[-71.127196,42.24489],[-71.127061,42.244773],[-71.127018,42.244587],[-71.127066,42.244332],[-71.127369,42.243668],[-71.127926,42.242596],[-71.127881,42.241841],[-71.127235,42.241402],[-71.126764,42.24069],[-71.126467,42.239707],[-71.122072,42.241398],[-71.113578,42.245763],[-71.109393,42.249808],[-71.109515,42.253532],[-71.110472,42.256251],[-71.112265,42.257966],[-71.113713,42.258361],[-71.114817,42.257436],[-71.115433,42.256969],[-71.115562,42.256958],[-71.115533,42.257116],[-71.115348,42.257442],[-71.114633,42.258083],[-71.113389,42.259037],[-71.112466,42.259847],[-71.111865,42.260512],[-71.111353,42.26094],[-71.110931,42.261128],[-71.110318,42.261259],[-71.109514,42.26133],[-71.108582,42.261208],[-71.107522,42.260891],[-71.106556,42.260791],[-71.105685,42.260908],[-71.104839,42.260675],[-71.104018,42.260092],[-71.103384,42.259842],[-71.102937,42.259925],[-71.102125,42.26033],[-71.100948,42.261059],[-71.100029,42.261733],[-71.099367,42.26235],[-71.098684,42.262766],[-71.097978,42.26298],[-71.097371,42.263491],[-71.096864,42.264298],[-71.096304,42.264964],[-71.095693,42.26549],[-71.09511,42.266098],[-71.094555,42.266791],[-71.094042,42.267134],[-71.09357,42.26713],[-71.093189,42.267043],[-71.092899,42.266874],[-71.092311,42.266719],[-71.091426,42.266579],[-71.090806,42.266553],[-71.090449,42.266643],[-71.090177,42.266988],[-71.089991,42.267587],[-71.089992,42.268168],[-71.09018,42.26873],[-71.090188,42.269146],[-71.090015,42.269415],[-71.089753,42.269618],[-71.089402,42.269757],[-71.087692,42.269568],[-71.084624,42.26905],[-71.082976,42.268812],[-71.082748,42.268852],[-71.082385,42.269051],[-71.081885,42.269407],[-71.081264,42.269648],[-71.080522,42.269774],[-71.079898,42.269788],[-71.079391,42.269688],[-71.079035,42.269717],[-71.078831,42.269872],[-71.07853,42.269972],[-71.078132,42.270016],[-71.077887,42.270082],[-71.077792,42.270171],[-71.077812,42.270226],[-71.077946,42.270246],[-71.077907,42.270299],[-71.077696,42.270387],[-71.077847,42.270419],[-71.078362,42.270394],[-71.077943,42.270452],[-71.07659,42.270592],[-71.075671,42.270597],[-71.075184,42.270467],[-71.074551,42.270374],[-71.073772,42.270318],[-71.073035,42.270453],[-71.072339,42.270778],[-71.071796,42.270945],[-71.071408,42.270957],[-71.071022,42.270902],[-71.070639,42.270782],[-71.070007,42.270744],[-71.069126,42.270788],[-71.068526,42.270866],[-71.068207,42.270979],[-71.068022,42.271158],[-71.067971,42.271403],[-71.067874,42.271552],[-71.067729,42.271604],[-71.067218,42.271565],[-71.066338,42.271435],[-71.065774,42.271305],[-71.065523,42.271178],[-71.06534,42.271022],[-71.065223,42.270838],[-71.064995,42.270706],[-71.064653,42.270627],[-71.064441,42.270487],[-71.064356,42.270284],[-71.064382,42.270154],[-71.064519,42.270097],[-71.06456,42.269962],[-71.064506,42.269749],[-71.064535,42.269491],[-71.064645,42.269188],[-71.064588,42.268977],[-71.064362,42.268857],[-71.064002,42.268792],[-71.063509,42.268782],[-71.063169,42.268695],[-71.062982,42.268531],[-71.062935,42.268349],[-71.063027,42.268147],[-71.062904,42.267921],[-71.062567,42.267672],[-71.062124,42.267718],[-71.061576,42.268058],[-71.06136,42.268353],[-71.061476,42.268602],[-71.061092,42.268825],[-71.060208,42.269022],[-71.059898,42.269263],[-71.060162,42.269547],[-71.060176,42.269676],[-71.05994,42.26965],[-71.059763,42.269571],[-71.059644,42.26944],[-71.0594,42.269371],[-71.059031,42.269365],[-71.058777,42.269491],[-71.05864,42.269748],[-71.05824,42.270147],[-71.057578,42.270688],[-71.057022,42.271095],[-71.056571,42.271368],[-71.055959,42.271613],[-71.055186,42.271832],[-71.054678,42.27203],[-71.054437,42.272208],[-71.054348,42.272365],[-71.054412,42.272501],[-71.054666,42.272641],[-71.05511,42.272784],[-71.055508,42.272848],[-71.055859,42.272833],[-71.056117,42.27276],[-71.056284,42.27263],[-71.056675,42.272577],[-71.057291,42.272602],[-71.057825,42.272681],[-71.058277,42.272814],[-71.058086,42.272827],[-71.057253,42.272722],[-71.056596,42.272743],[-71.056114,42.272891],[-71.055583,42.27297],[-71.055002,42.272979],[-71.054617,42.272931],[-71.054431,42.272827],[-71.054762,42.273181],[-71.055612,42.273992],[-71.056252,42.274467],[-71.056684,42.274605],[-71.056853,42.27474],[-71.056761,42.274869],[-71.056603,42.274866],[-71.056377,42.274731],[-71.05627,42.275115],[-71.05628,42.276019],[-71.056169,42.276499],[-71.055938,42.276555],[-71.055604,42.276766],[-71.055166,42.277132],[-71.05472,42.277405],[-71.054265,42.277586],[-71.053925,42.277661],[-71.053699,42.277631],[-71.052705,42.277867],[-71.050945,42.278367],[-71.049756,42.27859],[-71.049138,42.278535],[-71.048585,42.278384],[-71.048097,42.278138],[-71.047709,42.278033],[-71.047419,42.27807],[-71.047271,42.278038],[-71.047265,42.277936],[-71.046813,42.277645],[-71.045914,42.277163],[-71.045265,42.276901],[-71.044865,42.27686],[-71.044471,42.276918],[-71.044082,42.277075],[-71.043473,42.277508],[-71.042644,42.278218],[-71.042132,42.278715],[-71.041938,42.279001],[-71.042073,42.279133],[-71.042537,42.279109],[-71.042762,42.279347],[-71.042749,42.279846],[-71.042834,42.280189],[-71.043017,42.280373],[-71.043257,42.280498],[-71.043555,42.280562],[-71.04381,42.280676],[-71.044021,42.280839],[-71.043727,42.280817],[-71.042927,42.280609],[-71.042322,42.280544],[-71.04191,42.280622],[-71.041665,42.281391],[-71.041588,42.282853],[-71.04139,42.283776],[-71.041072,42.284161],[-71.040301,42.284782],[-71.039076,42.285639],[-71.038622,42.286212],[-71.038937,42.286501],[-71.039082,42.286703],[-71.039056,42.286819],[-71.038926,42.28684],[-71.038692,42.286766],[-71.038457,42.286829],[-71.03822,42.287027],[-71.037916,42.287439],[-71.037544,42.288064],[-71.037505,42.288598],[-71.037798,42.289042],[-71.037926,42.289664],[-71.037887,42.290464],[-71.038071,42.291006],[-71.038478,42.291288],[-71.03878,42.29138],[-71.038977,42.291283],[-71.03897,42.29134],[-71.038758,42.291551],[-71.038765,42.291651],[-71.038991,42.291642],[-71.039126,42.291799],[-71.039168,42.292122],[-71.039257,42.292234],[-71.039391,42.292134],[-71.0395,42.292106],[-71.039584,42.292149],[-71.039516,42.29227],[-71.039296,42.292468],[-71.039292,42.292561],[-71.039504,42.292548],[-71.039554999999993,42.292607],[-71.039444,42.292739],[-71.039462,42.292803],[-71.039608,42.292799],[-71.039674,42.292846],[-71.03966,42.292944],[-71.039936,42.293006],[-71.040503,42.293034],[-71.04077,42.29319],[-71.040736,42.293473],[-71.040666,42.293624],[-71.040559,42.293642],[-71.040571,42.29367],[-71.040702,42.293709],[-71.040802,42.293523],[-71.04087,42.293112],[-71.040926,42.29295],[-71.040967,42.293035],[-71.041028,42.293042],[-71.041107,42.292971],[-71.041183,42.293023],[-71.041254,42.2932],[-71.041493,42.293301],[-71.0419,42.293328],[-71.042095,42.293111],[-71.042078,42.292653],[-71.041948,42.29214],[-71.041704,42.291573],[-71.041588,42.29084],[-71.041601,42.289943],[-71.041683,42.289466],[-71.041834,42.289408],[-71.041901,42.289791],[-71.041883,42.290615],[-71.041961,42.291233],[-71.042134,42.291645],[-71.04233,42.292002],[-71.042549,42.292302],[-71.043173,42.292814],[-71.044202,42.293537],[-71.045038,42.294494],[-71.04568,42.295683],[-71.046168,42.296783],[-71.046501,42.297792],[-71.046609,42.298327],[-71.046491,42.298388],[-71.046408,42.298388],[-71.04636,42.298325],[-71.046356,42.29824],[-71.046396,42.298134],[-71.046314,42.297952],[-71.046109,42.297695],[-71.046015,42.29746],[-71.04603,42.297248],[-71.045914,42.296869],[-71.045666,42.296323],[-71.045358,42.296031],[-71.04499,42.295993],[-71.044743,42.296072],[-71.044616,42.296268],[-71.044614,42.296613],[-71.044736,42.297107],[-71.045081,42.297605],[-71.045647,42.298107],[-71.046022,42.298346],[-71.046204,42.298323],[-71.046271,42.298368],[-71.046224,42.298482],[-71.046267,42.298619],[-71.0464,42.29878],[-71.046292,42.298943],[-71.045941,42.299108],[-71.04572,42.299129],[-71.045628,42.299007],[-71.045387,42.299015],[-71.044996,42.299155],[-71.044824,42.299285],[-71.044869,42.299405],[-71.044856,42.299441],[-71.044786,42.299392],[-71.044586,42.299414],[-71.044256,42.299505],[-71.044026,42.299636],[-71.043894,42.299807],[-71.043731,42.299874],[-71.043535,42.299835],[-71.043427,42.299843],[-71.043407,42.299898],[-71.043549,42.299942],[-71.043854,42.299975],[-71.044059,42.300093],[-71.044164,42.300296],[-71.044137,42.300516],[-71.043979,42.300754],[-71.043769,42.300924],[-71.043509,42.301026],[-71.043371,42.301265],[-71.043355,42.30164],[-71.04343,42.301973],[-71.043596,42.302265],[-71.044491,42.302577],[-71.046115,42.302909],[-71.046976,42.302862],[-71.047071,42.302436],[-71.047283,42.3022],[-71.047612,42.302156],[-71.04783,42.302211],[-71.047937,42.302366],[-71.047952,42.302646],[-71.047873,42.303051],[-71.047974,42.303292],[-71.048254,42.30337],[-71.048652,42.303038],[-71.049166,42.302295],[-71.050268,42.302691],[-71.051958,42.304224],[-71.052971,42.305328],[-71.053306,42.306003],[-71.053356,42.306385],[-71.05312,42.306474],[-71.053064,42.306543],[-71.053186,42.306593],[-71.053279,42.306827],[-71.05334,42.307246],[-71.053307,42.307542],[-71.053179,42.307715],[-71.052782,42.307836],[-71.052116,42.307907],[-71.051067,42.307925],[-71.049634,42.307893],[-71.048665,42.30779],[-71.048161,42.307619],[-71.047847,42.307419],[-71.047722,42.30719],[-71.047783,42.306551],[-71.048029,42.305501],[-71.047981,42.304781],[-71.047638,42.304389],[-71.047247,42.304444],[-71.046806,42.304945],[-71.046475,42.30559],[-71.046252,42.306378],[-71.04584,42.3073],[-71.04524,42.308354],[-71.044741,42.308999],[-71.044342,42.309235],[-71.044042,42.309339],[-71.043843,42.309309],[-71.043467,42.309388],[-71.042916,42.309573],[-71.042585,42.309771],[-71.042475,42.30998],[-71.042435,42.31014],[-71.042467,42.310249],[-71.042549,42.310316],[-71.04268,42.31034],[-71.042992,42.310284],[-71.043487,42.310148],[-71.044059,42.310097],[-71.044707,42.310132],[-71.045078,42.310389],[-71.045172,42.310869],[-71.045191,42.311007],[-71.045136,42.310802],[-71.045004,42.310682],[-71.044795,42.310646],[-71.044518,42.310699],[-71.044173,42.310841],[-71.043996,42.311023],[-71.043987,42.311244],[-71.044227,42.311626],[-71.044716,42.312169],[-71.04512,42.312425],[-71.045438,42.312393],[-71.045608,42.312279],[-71.045629,42.312081],[-71.04565,42.312133],[-71.045672,42.312433],[-71.045828,42.312683],[-71.046119,42.312882],[-71.046206,42.313107],[-71.046088,42.313357],[-71.045664,42.313676],[-71.044934,42.314063],[-71.044481,42.314258],[-71.044303,42.314258],[-71.042685,42.313321],[-71.039624,42.311446],[-71.037936,42.310458],[-71.037619,42.310357],[-71.037303,42.310349],[-71.036988,42.310434],[-71.035934,42.311151],[-71.034141,42.312498],[-71.033152,42.31317],[-71.032968,42.313167],[-71.032823,42.313216],[-71.032717,42.313318],[-71.032768,42.314139],[-71.032976,42.315677],[-71.034072,42.316737],[-71.036057,42.317317],[-71.037118,42.31775],[-71.037255,42.318037],[-71.037143,42.318249],[-71.036782,42.318387],[-71.036594,42.318521],[-71.036579,42.318652],[-71.037281,42.318996],[-71.038701,42.319552],[-71.039409,42.319904],[-71.039405,42.320054],[-71.040354,42.320504],[-71.042258,42.321255],[-71.043299,42.321851],[-71.043479,42.322291],[-71.043671,42.322575],[-71.043878,42.322702],[-71.044342,42.32287],[-71.045066,42.323079],[-71.045534,42.323177],[-71.045748,42.323165],[-71.045915,42.323235],[-71.046037,42.323387],[-71.04632,42.323449],[-71.046764,42.32342],[-71.047091,42.323449],[-71.0473,42.323535],[-71.047484,42.323823],[-71.047645,42.324312],[-71.047737,42.324879],[-71.047761,42.325524],[-71.047652,42.326207],[-71.047408,42.326927],[-71.047145,42.327495],[-71.046863,42.32791],[-71.046436,42.328343],[-71.045865,42.328795],[-71.045078,42.329174],[-71.044075,42.329481],[-71.042762,42.329657],[-71.04114,42.329699],[-71.039999,42.329689],[-71.039338,42.329624],[-71.038773,42.329524],[-71.038304,42.329389],[-71.037903,42.329217],[-71.037571,42.329009],[-71.037102,42.328845],[-71.036498,42.328725],[-71.036194,42.3286],[-71.036191,42.328468],[-71.035785,42.328511],[-71.034974,42.328727],[-71.034387,42.328839],[-71.034025,42.328846],[-71.033626,42.328913],[-71.033191,42.329039],[-71.032143,42.329605],[-71.030483,42.330609],[-71.029514,42.331122],[-71.029235,42.331143],[-71.028391,42.331418],[-71.026982,42.331948],[-71.02612,42.332317],[-71.025803,42.332523],[-71.025414,42.332629],[-71.024953,42.332632],[-71.0247,42.332675],[-71.024655,42.332758],[-71.023673,42.332659],[-71.021752,42.332379],[-71.020088,42.331927],[-71.018681,42.331303],[-71.017282,42.33086],[-71.01589,42.330597],[-71.015126,42.330502],[-71.014989,42.330575],[-71.014977,42.330664],[-71.015091,42.330767],[-71.01469,42.33133],[-71.013775,42.332352],[-71.01303,42.3334],[-71.012457,42.334473],[-71.011978,42.335246],[-71.011594,42.33572],[-71.011069,42.336127],[-71.010404,42.336465],[-71.009932,42.336641],[-71.009653,42.336655],[-71.009485,42.336806],[-71.00943,42.337096],[-71.00946,42.337549],[-71.009573,42.338164],[-71.009752,42.338649],[-71.009997,42.339004],[-71.010075,42.339205],[-71.009986,42.339253],[-71.009839,42.339189],[-71.009633,42.339015],[-71.009636,42.339038],[-71.009846,42.339259],[-71.010085,42.339334],[-71.010352,42.339263],[-71.010579,42.339284],[-71.010766,42.339397],[-71.010882,42.339577],[-71.010926,42.339822],[-71.011759,42.340459],[-71.013381,42.341485],[-71.016925,42.34196],[-71.022392,42.341884],[-71.025115,42.341772],[-71.025095,42.341624],[-71.025347,42.34157],[-71.025871,42.341609],[-71.026207,42.341556],[-71.026355,42.34141],[-71.026519,42.341332],[-71.026699,42.341319],[-71.02699,42.341355],[-71.027393,42.341439],[-71.027674,42.341547],[-71.027832,42.341681],[-71.028189,42.341751],[-71.028745,42.341758],[-71.029118,42.341701],[-71.029306,42.341582],[-71.029412,42.341208],[-71.029434,42.340581],[-71.029685,42.340255],[-71.030167,42.34023],[-71.030443,42.340546],[-71.030514,42.341202],[-71.031354,42.341526],[-71.032963,42.341518],[-71.03376,42.341235],[-71.033743,42.340677],[-71.033973,42.34039],[-71.03445,42.340375],[-71.034692,42.340437],[-71.0347,42.340577],[-71.034816,42.340641],[-71.035041,42.340629],[-71.035156,42.340886],[-71.035162,42.341409],[-71.035264,42.341698],[-71.035464,42.341752],[-71.03596,42.341722],[-71.036753,42.341608],[-71.037605,42.341565],[-71.038515,42.341592],[-71.039068,42.341246],[-71.039263,42.340525],[-71.03949,42.340094],[-71.039747,42.339954],[-71.039905,42.339519],[-71.039963,42.338789],[-71.04005,42.338717],[-71.040164,42.339303],[-71.040431,42.339468],[-71.040851,42.33921],[-71.041309,42.339204],[-71.041804,42.339449],[-71.04176,42.339733],[-71.041177,42.340056],[-71.040758,42.340436],[-71.0405,42.340873],[-71.039953,42.341524],[-71.039114,42.342388],[-71.038701,42.343026],[-71.038714,42.343437],[-71.038475,42.343647],[-71.037985,42.343655],[-71.037604,42.343563],[-71.03733,42.343371],[-71.033388,42.343337],[-71.025776,42.343461],[-71.021949,42.343755],[-71.021907,42.344219],[-71.022777,42.344448],[-71.024562,42.344442],[-71.025457,42.344502],[-71.025464,42.344629],[-71.02558,42.34469],[-71.025804,42.344684],[-71.025919,42.344772],[-71.025926,42.344953],[-71.026076,42.345041],[-71.026369,42.345037],[-71.026523,42.345188],[-71.026538,42.345494],[-71.025716,42.34566],[-71.024058,42.345684],[-71.023234,42.346001],[-71.023243,42.34661],[-71.023969,42.347211],[-71.025412,42.347803],[-71.026158,42.348065],[-71.026207,42.347997],[-71.02642,42.348],[-71.026796,42.348074],[-71.028287,42.348665],[-71.030894,42.349775],[-71.032608,42.349788],[-71.033429,42.348705],[-71.034082,42.348263],[-71.034567,42.348462],[-71.034416,42.349095],[-71.03363,42.350161],[-71.033288,42.350732],[-71.033391,42.350809],[-71.033506,42.350791],[-71.033631,42.35068],[-71.033796,42.350666],[-71.034001,42.350748],[-71.034065,42.350844],[-71.033989,42.350951],[-71.033999,42.351034],[-71.034095,42.351091],[-71.034567,42.350587],[-71.035416,42.349521],[-71.036018,42.349061],[-71.036375,42.349207],[-71.036729,42.349042],[-71.037078,42.348567],[-71.03735,42.348369],[-71.037544,42.348449],[-71.037664,42.348552],[-71.037711,42.348679],[-71.038003,42.348852],[-71.03854,42.349072],[-71.038309,42.349858],[-71.03731,42.351211],[-71.037063,42.35199],[-71.037568,42.352195],[-71.038344,42.351579],[-71.03939,42.35014],[-71.040153,42.349519],[-71.040633,42.349717],[-71.040341,42.350529],[-71.039277,42.351956],[-71.039056,42.352805],[-71.039677,42.353077],[-71.040536,42.352498],[-71.04163,42.351069],[-71.042326,42.350415],[-71.042625,42.350537],[-71.042723,42.350664],[-71.042623,42.350796],[-71.042693,42.350911],[-71.042934,42.35101],[-71.042539,42.351701],[-71.041508,42.352986],[-71.041142,42.353691],[-71.041442,42.353816],[-71.041781,42.353636],[-71.042159,42.353152],[-71.04253,42.35298],[-71.042893,42.353122],[-71.043182,42.353127],[-71.043398,42.352997],[-71.043753,42.353047],[-71.044246,42.353278],[-71.044282,42.353722],[-71.04386,42.35438],[-71.044065,42.354815],[-71.044897,42.355026],[-71.045752,42.355083],[-71.046632,42.354987],[-71.047442,42.354714],[-71.048182,42.354263],[-71.050104,42.351994],[-71.053209,42.347905],[-71.055589,42.345734],[-71.057243,42.345481],[-71.058581,42.345043],[-71.059602,42.344421],[-71.060153,42.343837],[-71.060234,42.343292],[-71.060465,42.34297],[-71.060845,42.342871],[-71.060928,42.343308],[-71.060713,42.344282],[-71.060173,42.34503],[-71.059308,42.345551],[-71.058334,42.345979],[-71.057252,42.346313],[-71.056448,42.346611],[-71.055923,42.346872],[-71.054761,42.34835],[-71.052961,42.351043],[-71.052105,42.352428],[-71.05219,42.352504],[-71.052136,42.35265],[-71.051944,42.352864],[-71.051812,42.352957],[-71.05174,42.35293],[-71.051512,42.353204],[-71.051129,42.35378],[-71.051,42.354144],[-71.051124,42.354296],[-71.051135,42.354438],[-71.051034,42.354572],[-71.050909,42.354592],[-71.050758,42.354501],[-71.050382,42.354888],[-71.049781,42.355754],[-71.049614,42.35616],[-71.049879,42.356107],[-71.049974,42.356199],[-71.049899,42.356434],[-71.049701,42.356553],[-71.04938,42.356553],[-71.049219,42.356627],[-71.049218,42.356775],[-71.049379,42.356849],[-71.0497,42.356848],[-71.049634,42.35693],[-71.04918,42.357097],[-71.048986,42.357254],[-71.049053,42.357404],[-71.049235,42.357443],[-71.049533,42.35737],[-71.049621,42.357587],[-71.0495,42.358094],[-71.049621,42.358317],[-71.049986,42.358257],[-71.050207,42.358375],[-71.050284,42.358672],[-71.050138,42.35885],[-71.049769,42.358908],[-71.049522,42.358855],[-71.049399,42.35869],[-71.049171,42.358633],[-71.048839,42.358685],[-71.048689,42.35876],[-71.04872,42.358859],[-71.048662,42.358921],[-71.048512,42.358948],[-71.048443,42.359113],[-71.048453,42.359417],[-71.049022,42.359479],[-71.05015,42.3593],[-71.050716,42.359317],[-71.05072,42.35953],[-71.049955,42.359736],[-71.048422,42.359933],[-71.047667,42.360179],[-71.047691,42.360474],[-71.048056,42.360551],[-71.048763,42.36041],[-71.049164,42.360421],[-71.04926,42.360583],[-71.049675,42.360653],[-71.050412,42.360632],[-71.050791,42.360934],[-71.050815,42.361559],[-71.050779,42.361854],[-71.050682,42.361821],[-71.050604,42.361848],[-71.050544,42.361936],[-71.050264,42.361905],[-71.049764,42.361754],[-71.049492,42.361605],[-71.049448,42.361458],[-71.049219,42.361425],[-71.048804,42.361507],[-71.048616,42.361612],[-71.048653,42.361741],[-71.048474,42.361839],[-71.048078,42.361905],[-71.0479,42.362004],[-71.047941,42.362135],[-71.048247,42.362168],[-71.048817,42.362101],[-71.049527,42.362196],[-71.050378,42.362453],[-71.050807,42.362686],[-71.050813,42.362896],[-71.050387,42.362883],[-71.049527,42.362646],[-71.049076,42.362594],[-71.049033,42.362728],[-71.049069,42.362807],[-71.049181,42.362834],[-71.049197,42.362851],[-71.049115,42.362859],[-71.049064,42.363005],[-71.049044,42.363289],[-71.04885,42.36337],[-71.048481,42.36325],[-71.048322,42.363275],[-71.048372,42.363446],[-71.048727,42.363537],[-71.049387,42.363548],[-71.049598,42.363799],[-71.049359,42.36429],[-71.049646,42.364616],[-71.050458,42.364777],[-71.050869,42.364911],[-71.050877,42.365017],[-71.050765,42.365089],[-71.050533,42.365128],[-71.05001,42.365085],[-71.049197,42.36496],[-71.048786,42.364998],[-71.048777,42.365198],[-71.049026,42.365317],[-71.049532,42.365356],[-71.049784,42.365453],[-71.04978,42.365608],[-71.049845,42.365719],[-71.049978,42.365786],[-71.050044,42.365873],[-71.050043,42.365981],[-71.049806,42.366064],[-71.049333,42.366124],[-71.049092,42.366201],[-71.049084,42.366293],[-71.049185,42.366341],[-71.049397,42.366344],[-71.049525,42.366382],[-71.049571,42.366457],[-71.049481,42.366514],[-71.049256,42.366555],[-71.049165,42.366638],[-71.049208,42.366764],[-71.049514,42.366784],[-71.050083,42.366698],[-71.050375,42.366701],[-71.05039,42.366791],[-71.050136,42.366888],[-71.049612,42.366992],[-71.049467,42.367244],[-71.049702,42.367646],[-71.050099,42.367671],[-71.050656,42.367321],[-71.051035,42.367241],[-71.051235,42.367431],[-71.051004,42.367824],[-71.050342,42.368419],[-71.050071,42.368754],[-71.050191,42.368829],[-71.050491,42.36865],[-71.050969,42.368217],[-71.051354,42.368034],[-71.051644,42.368102],[-71.05157,42.368413],[-71.05113,42.368967],[-71.050971,42.369271],[-71.051093,42.369325],[-71.051288,42.369187],[-71.051557,42.368857],[-71.051817,42.368748],[-71.052068,42.36886],[-71.052068,42.369069],[-71.051818,42.369376],[-71.051773,42.369565],[-71.051932,42.369637],[-71.052221,42.369416],[-71.05264,42.368904],[-71.052963,42.368717],[-71.053191,42.368856],[-71.053351,42.368868],[-71.053443,42.368753],[-71.053882,42.368791],[-71.054667,42.368982],[-71.055075,42.369042],[-71.055105,42.36897],[-71.055524,42.368925],[-71.056332,42.368908],[-71.05687,42.36886],[-71.057138,42.368782],[-71.05748,42.368576],[-71.057895,42.368241],[-71.058138,42.368108],[-71.058208,42.368177],[-71.058196,42.368258],[-71.058103,42.36835],[-71.058129,42.368354],[-71.058275,42.368269],[-71.058304,42.368162],[-71.058215,42.368034],[-71.058304,42.367963],[-71.05857,42.36795],[-71.058731,42.36786],[-71.058786,42.367693],[-71.058902,42.367599],[-71.059079,42.367578],[-71.059208,42.367614],[-71.059291,42.367706],[-71.059659,42.367598],[-71.060315,42.36729],[-71.060695,42.36717],[-71.060801,42.367238],[-71.060875,42.367449],[-71.060917,42.367803],[-71.060853,42.368073],[-71.060683,42.368259],[-71.060664,42.36837],[-71.060797,42.368407],[-71.060799,42.368446],[-71.060668,42.368485],[-71.060681,42.368528],[-71.060838,42.368575],[-71.060832,42.368624],[-71.060664,42.368678],[-71.060622,42.368694],[-71.060706,42.368674],[-71.060726,42.368728],[-71.060682,42.368856],[-71.060764,42.368913],[-71.060972,42.368901],[-71.061113,42.369069],[-71.061189,42.369417],[-71.060945,42.369795],[-71.06038,42.370203],[-71.060121,42.370455],[-71.060166,42.370553],[-71.060104,42.370583],[-71.059935,42.370546],[-71.059782,42.370566],[-71.059648,42.370643],[-71.059685,42.370789],[-71.059894,42.371005],[-71.059909,42.371174],[-71.059729,42.371295],[-71.059516,42.371356],[-71.059268,42.371355],[-71.058769,42.371184],[-71.05802,42.370842],[-71.057257,42.37085],[-71.05648,42.37121],[-71.056496,42.371591],[-71.057306,42.371993],[-71.057507,42.372325],[-71.057099,42.372586],[-71.056367,42.372466],[-71.055311,42.371964],[-71.054639,42.371733],[-71.054352,42.371771],[-71.054642,42.372242],[-71.055509,42.373146],[-71.055893,42.373632],[-71.055795,42.3737],[-71.055173,42.373277],[-71.054025,42.372361],[-71.053423,42.371934],[-71.053367,42.371995],[-71.053621,42.372274],[-71.054185,42.37277],[-71.054424,42.373044],[-71.054339,42.373096],[-71.054214,42.373051],[-71.05405,42.372909],[-71.053916,42.372871],[-71.05381,42.37294],[-71.053575,42.372812],[-71.05321,42.37249],[-71.052977,42.372354],[-71.052875,42.372406],[-71.053264,42.372836],[-71.054144,42.373645],[-71.054592,42.374137],[-71.05461,42.374312],[-71.053644,42.373608],[-71.051695,42.372025],[-71.05067,42.371261],[-71.05057,42.371318],[-71.050914,42.371692],[-71.051702,42.372385],[-71.051966,42.372814],[-71.051705,42.372979],[-71.05118,42.372714],[-71.050389,42.372018],[-71.049903,42.371724],[-71.049722,42.37183],[-71.05002,42.372228],[-71.050796,42.372919],[-71.051085,42.373362],[-71.050886,42.373559],[-71.050417,42.373345],[-71.049679,42.372718],[-71.049286,42.372444],[-71.049238,42.372523],[-71.049594,42.372898],[-71.050355,42.373568],[-71.050695,42.374049],[-71.050613,42.374341],[-71.050175,42.374139],[-71.049382,42.373445],[-71.048908,42.373177],[-71.048752,42.373335],[-71.049183,42.373858],[-71.050199,42.374746],[-71.050614,42.375262],[-71.050427,42.375406],[-71.050288,42.375438],[-71.050195,42.375357],[-71.050021,42.375371],[-71.049767,42.375481],[-71.049459,42.375417],[-71.049098,42.37518],[-71.048868,42.375102],[-71.048769,42.375183],[-71.049032,42.375428],[-71.049657,42.375837],[-71.049721,42.376408],[-71.049224,42.377142],[-71.048754,42.377339],[-71.04831,42.376998],[-71.048386,42.377089],[-71.048984,42.377613],[-71.04925,42.377921],[-71.049186,42.378013],[-71.04874,42.377778],[-71.047911,42.377216],[-71.047661,42.377508],[-71.047989,42.378654],[-71.048648,42.379309],[-71.049638,42.379472],[-71.050294,42.379562],[-71.050615,42.37958],[-71.050803,42.379546],[-71.050859,42.379458],[-71.051201,42.379505],[-71.051832,42.379688],[-71.051981,42.379991],[-71.05165,42.380413],[-71.050531,42.380448],[-71.048625,42.380094],[-71.047586,42.380231],[-71.047414,42.380859],[-71.047938,42.381268],[-71.049157,42.381459],[-71.049638,42.381697],[-71.049381,42.381981],[-71.048819,42.382033],[-71.047955,42.381852],[-71.047511,42.381937],[-71.047487,42.382286],[-71.047604,42.382641],[-71.047862,42.383001],[-71.048295,42.383328],[-71.048903,42.38362],[-71.049305,42.383779],[-71.0495,42.383804],[-71.049682,42.383748],[-71.049851,42.38361],[-71.050009,42.383555],[-71.050155,42.383584],[-71.050239,42.383671],[-71.050262,42.383817],[-71.050439,42.383906],[-71.050772,42.38394],[-71.050932,42.383994],[-71.050919,42.384068],[-71.052887,42.384304],[-71.056835,42.384702],[-71.059116,42.384482],[-71.05973,42.383645],[-71.060196,42.383229],[-71.060514,42.383234],[-71.060405,42.383593],[-71.05987,42.384305],[-71.05968,42.384695],[-71.059836,42.384764],[-71.060208,42.384416],[-71.060797,42.383649],[-71.061183,42.383275],[-71.061365,42.383292],[-71.061357,42.383477],[-71.061158,42.38383],[-71.061133,42.384032],[-71.061283,42.384082],[-71.061536,42.383933],[-71.061894,42.383586],[-71.062121,42.383417],[-71.062215,42.383427],[-71.06202,42.38382],[-71.061535,42.384596],[-71.061089,42.384957],[-71.060683,42.384904],[-71.060473,42.384921],[-71.060461,42.385007],[-71.060866,42.38509],[-71.061686,42.385171],[-71.062423,42.384795],[-71.063075,42.383963],[-71.063532,42.383563],[-71.063794,42.383593],[-71.064006,42.383656],[-71.064169,42.383752],[-71.064023,42.384109],[-71.063569,42.384726],[-71.063409,42.385064],[-71.063544,42.385122],[-71.0636,42.385208],[-71.063577,42.385322],[-71.063898,42.38541],[-71.064561,42.38547],[-71.064596,42.385415],[-71.064001,42.385245],[-71.063923,42.385177],[-71.064363,42.385212],[-71.064676,42.385143],[-71.064864,42.38497],[-71.065252,42.385032],[-71.06584,42.385327],[-71.066552,42.385519],[-71.067386,42.385609],[-71.067929,42.385573],[-71.068182,42.385413],[-71.068688,42.385427],[-71.069446,42.385616],[-71.069955,42.385807],[-71.070215,42.385999],[-71.070221,42.386181],[-71.069975,42.386351],[-71.070497,42.386778],[-71.071788,42.38746],[-71.072835,42.388484],[-71.073638,42.389849],[-71.074102,42.390545],[-71.074228,42.390571],[-71.075646,42.388668],[-71.078356,42.384836],[-71.080031,42.382768],[-71.08067,42.382464],[-71.080917,42.381991],[-71.080773,42.381348],[-71.079446,42.380826],[-71.076935,42.380425],[-71.074843,42.378302],[-71.073169,42.374456],[-71.070963,42.372341],[-71.068227,42.371958],[-71.066567,42.371535],[-71.065981,42.371072],[-71.065613,42.370683],[-71.065462,42.370368],[-71.065188,42.370023],[-71.064793,42.369647],[-71.063902,42.369438],[-71.062516,42.369396],[-71.061859,42.369342],[-71.06193,42.369276],[-71.061921,42.369245],[-71.061831,42.369249],[-71.061749,42.369128],[-71.061677,42.368881],[-71.061747,42.368741],[-71.061961,42.368706],[-71.062024,42.368681],[-71.061938,42.368665],[-71.061911,42.3686],[-71.061943,42.368485],[-71.061887,42.368442],[-71.061743,42.368471],[-71.061722,42.368436],[-71.061824,42.368336],[-71.061803,42.368263],[-71.061658,42.368217],[-71.061758,42.36814],[-71.062105,42.368033],[-71.062607,42.368063],[-71.063266,42.36823],[-71.06393,42.368466],[-71.064599,42.36877],[-71.065164,42.368884],[-71.065626,42.368808],[-71.06572,42.368779],[-71.065446,42.368796],[-71.065239,42.368697],[-71.065098,42.368483],[-71.065154,42.368356],[-71.065407,42.368314],[-71.065659,42.368346],[-71.065908,42.368449],[-71.066228,42.368365],[-71.066619,42.368091],[-71.067119,42.367911],[-71.067727,42.367825],[-71.068161,42.367592],[-71.068421,42.367213],[-71.068554,42.367085],[-71.068557,42.367208],[-71.068618,42.36728],[-71.068736,42.3673],[-71.068749,42.367375],[-71.068659,42.367506],[-71.068697,42.367485],[-71.068863,42.36731],[-71.069355,42.367431],[-71.070172,42.367847],[-71.070763,42.36786],[-71.071127,42.36747],[-71.071131,42.367175],[-71.070773,42.366975],[-71.070644,42.36679],[-71.070746,42.36662],[-71.070625,42.366445],[-71.070283,42.366265],[-71.069899,42.366404],[-71.069473,42.366862],[-71.069227,42.367073],[-71.06916,42.367038],[-71.069427,42.366697],[-71.070026,42.36605],[-71.070265,42.365689],[-71.070146,42.365614],[-71.070167,42.365404],[-71.07033,42.36506],[-71.070548,42.364924],[-71.070822,42.364997],[-71.071135,42.36499],[-71.071489,42.364903],[-71.071942,42.36468],[-71.072493,42.364323],[-71.072861,42.3637],[-71.073045,42.362811],[-71.073116,42.361824],[-71.073076,42.360739],[-71.07311,42.360162],[-71.073221,42.360093],[-71.073277,42.360171],[-71.07328,42.360399],[-71.073357,42.36024],[-71.073509,42.359695],[-71.073491,42.359553],[-71.073303,42.359815],[-71.073284,42.359778],[-71.073434,42.359445],[-71.073414,42.359222],[-71.073223,42.359111],[-71.073187,42.358986],[-71.073306,42.358849],[-71.073304,42.358788],[-71.073182,42.358803],[-71.073206,42.358598],[-71.073376,42.358173],[-71.073506,42.357991],[-71.073597,42.358052],[-71.073652,42.357993],[-71.073671,42.357815],[-71.073777,42.357714],[-71.07397,42.357689],[-71.074101,42.357588],[-71.074169,42.357411],[-71.074461,42.357278],[-71.074977,42.35719],[-71.075354,42.357048],[-71.07559,42.356851],[-71.075694,42.356822],[-71.075666,42.356963],[-71.075755,42.356938],[-71.07596,42.356749],[-71.075996,42.356656],[-71.075864,42.356659],[-71.075949,42.356577],[-71.076253,42.356409],[-71.078446,42.355769],[-71.082528,42.354659],[-71.084736,42.353947],[-71.085068,42.353631],[-71.085106,42.353441],[-71.08485,42.353375],[-71.085045,42.353277],[-71.085694,42.353147],[-71.085982,42.353114],[-71.085911,42.353178],[-71.08598,42.353182],[-71.08619,42.353124],[-71.086251,42.353072],[-71.086163,42.353023],[-71.086745,42.352836],[-71.088,42.35251],[-71.089477,42.352242],[-71.091177,42.352029],[-71.092618,42.351706],[-71.093801,42.35127],[-71.095291,42.351054],[-71.097088,42.351056],[-71.098626,42.351211],[-71.099903,42.351519],[-71.101302,42.351612],[-71.102821,42.35149],[-71.104425,42.351489],[-71.106114,42.351609],[-71.10739,42.351774],[-71.108256,42.351983],[-71.109087,42.352086],[-71.109884,42.352083],[-71.110495,42.352123],[-71.11092,42.352207],[-71.111518,42.352226],[-71.11229,42.35218],[-71.113032,42.352265],[-71.113744,42.35248],[-71.114814,42.35299],[-71.116243,42.353794],[-71.117156,42.354389],[-71.117555,42.354774],[-71.117852,42.355206],[-71.118049,42.355685],[-71.11809,42.356309],[-71.117973,42.357078],[-71.117732,42.357942],[-71.117367,42.358902],[-71.117227,42.359758],[-71.117313,42.36051],[-71.117301,42.360912],[-71.117191,42.360963],[-71.117258,42.361558],[-71.117502,42.362696],[-71.117575,42.363466],[-71.117476,42.363867],[-71.117488,42.364694],[-71.117609,42.365947],[-71.117857,42.366951],[-71.118232,42.367706],[-71.118687,42.36813],[-71.119221,42.368223],[-71.120165,42.368244],[-71.121519,42.368192],[-71.122534,42.368311],[-71.123211,42.368601],[-71.123895,42.368813],[-71.124586,42.368948],[-71.125056,42.369147],[-71.125305,42.369411],[-71.125387,42.369576],[-71.125302,42.369643],[-71.125342,42.369792],[-71.125507,42.370023],[-71.125618,42.370087],[-71.125674,42.369983],[-71.125858,42.370121],[-71.126167,42.370498],[-71.126484,42.371077],[-71.126806,42.371858],[-71.127324,42.372499],[-71.128038,42.372999],[-71.128692,42.373338],[-71.129288,42.373513],[-71.130028,42.373563],[-71.130913,42.373486],[-71.131659,42.373275],[-71.132267,42.37293],[-71.132589,42.372612],[-71.132627,42.372322],[-71.132371,42.371871],[-71.131821,42.371259],[-71.131429,42.370634],[-71.131193,42.369996],[-71.131147,42.369517],[-71.13129,42.369198],[-71.131703,42.368783],[-71.132384,42.368275],[-71.133568,42.367663],[-71.135255,42.36695],[-71.13665,42.366113],[-71.137756,42.365153],[-71.138498,42.364578],[-71.138876,42.364387],[-71.139421,42.364233],[-71.140132,42.364116],[-71.14111,42.36421],[-71.142354,42.364515],[-71.143254,42.364633],[-71.143811,42.364565],[-71.144285,42.364372],[-71.144676,42.364054],[-71.145103,42.363531],[-71.145565,42.362804],[-71.146365,42.362065],[-71.147504,42.361316],[-71.149121,42.360804],[-71.151217,42.360529],[-71.152856,42.360186],[-71.154038,42.359774],[-71.155771,42.359568],[-71.158057,42.359568],[-71.159604,42.359415],[-71.160413,42.359109],[-71.160932,42.358965],[-71.161162,42.358984],[-71.161345,42.35885],[-71.161482,42.358564],[-71.161781,42.358345],[-71.162242,42.358193],[-71.16299,42.358143],[-71.164026,42.358194],[-71.165,42.358548],[-71.165914,42.359207],[-71.166653,42.359521],[-71.167217,42.359492],[-71.167758,42.359389],[-71.168275,42.359212],[-71.169877,42.357709],[-71.172564,42.35488],[-71.174145,42.352682],[-71.174621,42.351117],[-71.172815,42.347774],[-71.168728,42.342654],[-71.166679,42.339908],[-71.166668,42.339539],[-71.167204,42.339148],[-71.168287,42.338738],[-71.168939,42.338328],[-71.169159,42.337918],[-71.169166,42.337218],[-71.168959,42.336227],[-71.168539,42.335136],[-71.167906,42.333944],[-71.16639,42.333479],[-71.163991,42.333742],[-71.162436,42.333829],[-71.161728,42.333741],[-71.160915,42.333471],[-71.159998,42.333019],[-71.158896,42.332192],[-71.157608,42.330987],[-71.155257,42.331424],[-71.151843,42.333502],[-71.150242,42.334639],[-71.150454,42.334834],[-71.150438,42.335045],[-71.150194,42.335272],[-71.149641,42.335486],[-71.148778,42.335688],[-71.148448,42.336061],[-71.148652,42.336606],[-71.148107,42.337021],[-71.146813,42.337305],[-71.146284,42.337719],[-71.14652,42.338262],[-71.146545,42.338548],[-71.146358,42.338578],[-71.145763,42.338949],[-71.144758,42.339661],[-71.143676,42.340024],[-71.142518,42.340039],[-71.141779,42.340314],[-71.141461,42.340849],[-71.139779,42.342327],[-71.136733,42.344748],[-71.134753,42.346251],[-71.13384,42.346836],[-71.132283,42.347654],[-71.130083,42.348706],[-71.128878,42.349385],[-71.128669,42.349689],[-71.128318,42.34985],[-71.127827,42.34987],[-71.127292,42.349954],[-71.126713,42.350103],[-71.12586,42.350521],[-71.12473,42.351208],[-71.123858,42.351518],[-71.123243,42.351451],[-71.122918,42.3515],[-71.122884,42.351665],[-71.118786,42.351258],[-71.110626,42.350277],[-71.106685,42.349082],[-71.10696,42.347672],[-71.106728,42.34622],[-71.105989,42.344727],[-71.105483,42.34406],[-71.10521,42.344219],[-71.104948,42.344275],[-71.104697,42.344227],[-71.104717,42.344163],[-71.105007,42.34408],[-71.105201,42.343952],[-71.105301,42.343778],[-71.105506,42.343634],[-71.105815,42.343522],[-71.10627,42.343144],[-71.10687,42.342502],[-71.107371,42.342143],[-71.107773,42.342066],[-71.107969,42.342125],[-71.107957,42.342319],[-71.107981,42.342305],[-71.108042,42.342082],[-71.108167,42.341966],[-71.108358,42.341959],[-71.108425,42.342011],[-71.108368,42.342124],[-71.108472,42.342101],[-71.108736,42.341941],[-71.108772,42.341877],[-71.10858,42.341909],[-71.108486,42.341874],[-71.108492,42.341772],[-71.108751,42.341633],[-71.109261,42.341457],[-71.10975,42.34116],[-71.110219,42.340742],[-71.110717,42.339714],[-71.111246,42.338075],[-71.111264,42.337022],[-71.110773,42.336556],[-71.110644,42.336197],[-71.110877,42.335945],[-71.110974,42.33578],[-71.110934,42.335702],[-71.110778,42.335618],[-71.110504,42.335528],[-71.110442,42.335355],[-71.110591,42.3351],[-71.111078,42.334641],[-71.111904,42.333978],[-71.112495,42.333386],[-71.112852,42.332864],[-71.113155,42.332145],[-71.113403,42.331228],[-71.113323,42.330418],[-71.112915,42.329713],[-71.112816,42.329132],[-71.113024,42.328676],[-71.11334,42.32839],[-71.113764,42.328275],[-71.114003,42.328111],[-71.114059,42.327897],[-71.114302,42.327543],[-71.114731,42.327048],[-71.115097,42.326787],[-71.115401,42.32676],[-71.115659,42.326492],[-71.115871,42.325985],[-71.11591,42.325599],[-71.115778,42.325333],[-71.115846,42.325132],[-71.116115,42.324998],[-71.116292,42.324712],[-71.116377,42.324274],[-71.116487,42.323981],[-71.116621,42.323833],[-71.117123,42.323671],[-71.117991,42.323493],[-71.11849,42.323263],[-71.118619,42.322979],[-71.118863,42.322809],[-71.119221,42.322752],[-71.119576,42.322746],[-71.119927,42.322793],[-71.120478,42.323087],[-71.121229,42.32363],[-71.12207,42.323558],[-71.123002,42.322871],[-71.123543,42.322562],[-71.123694,42.322632],[-71.125783,42.320296],[-71.12981,42.315555],[-71.132992,42.311459],[-71.13533,42.308009],[-71.137392,42.30526],[-71.139181,42.303213],[-71.141775,42.300964],[-71.145176,42.298513],[-71.148193,42.296614],[-71.150825,42.295268],[-71.155262,42.296887],[-71.161503,42.301473],[-71.168145,42.301445],[-71.175189,42.296803],[-71.181739,42.29169],[-71.187797,42.286107],[-71.19082,42.283149]]],[[[-71.039511,42.363356],[-71.039115,42.363177],[-71.03863,42.363446],[-71.038057,42.364164],[-71.037826,42.364548],[-71.037937,42.364597],[-71.037851,42.364722],[-71.037568,42.364922],[-71.037165,42.364907],[-71.036644,42.364676],[-71.036653,42.364133],[-71.037193,42.363277],[-71.037385,42.362868],[-71.037228,42.362905],[-71.0369,42.363273],[-71.036402,42.36397],[-71.036026,42.364247],[-71.035772,42.364102],[-71.035571,42.364053],[-71.035421,42.364102],[-71.035179,42.36407],[-71.034847,42.363956],[-71.034611,42.363943],[-71.034472,42.364029],[-71.034321,42.363929],[-71.034156,42.363643],[-71.034485,42.362984],[-71.035307,42.361953],[-71.035279,42.36194],[-71.034403,42.362948],[-71.033891,42.363415],[-71.033744,42.363344],[-71.033744,42.3626],[-71.033889,42.361184],[-71.033909,42.360479],[-71.033802,42.360485],[-71.033707,42.361058],[-71.033624,42.362197],[-71.033314,42.362749],[-71.032776,42.362714],[-71.032522,42.362339],[-71.032552,42.361625],[-71.032527,42.361634],[-71.032447,42.362365],[-71.032337,42.362721],[-71.032197,42.362701],[-71.032091,42.362608],[-71.032019,42.362442],[-71.031906,42.362749],[-71.031753,42.363529],[-71.031622,42.363912],[-71.031512,42.363898],[-71.031439,42.363533],[-71.031403,42.362817],[-71.031372,42.362589],[-71.031346,42.362849],[-71.031179,42.362971],[-71.030871,42.362956],[-71.030685,42.363124],[-71.030619,42.363477],[-71.03043,42.363662],[-71.030118,42.363679],[-71.029922,42.363554],[-71.029845,42.363286],[-71.029714,42.363212],[-71.029532,42.363332],[-71.029221,42.363427],[-71.028782,42.363497],[-71.028485,42.363628],[-71.028333,42.363819],[-71.028348,42.363951],[-71.028532,42.364023],[-71.028419,42.364324],[-71.028008,42.364853],[-71.027555,42.36503],[-71.027059,42.364855],[-71.026655,42.364568],[-71.026343,42.364169],[-71.02621,42.363559],[-71.026256,42.362737],[-71.026764,42.361263],[-71.027733,42.359135],[-71.02802,42.357972],[-71.027625,42.357775],[-71.027176,42.357683],[-71.026675,42.357696],[-71.026417,42.357567],[-71.026401,42.357296],[-71.024003,42.356001],[-71.019224,42.353684],[-71.014529,42.351061],[-71.009918,42.348134],[-71.006901,42.346784],[-71.005478,42.347012],[-71.004826,42.347575],[-71.004944,42.348475],[-71.004886,42.349679],[-71.004653,42.351185],[-71.004241,42.35269],[-71.003652,42.354193],[-71.003428,42.354987],[-71.003569,42.355072],[-71.003831,42.355098],[-71.004214,42.355068],[-71.004551,42.354828],[-71.004841,42.354378],[-71.005166,42.354138],[-71.005526,42.354105],[-71.005829,42.354187],[-71.006075,42.354381],[-71.006266,42.354619],[-71.006401,42.354901],[-71.006342,42.355204],[-71.00609,42.35553],[-71.005714,42.355679],[-71.005212,42.35565],[-71.004467,42.355866],[-71.003478,42.356327],[-71.002362,42.356658],[-71.001119,42.35686],[-71.000142,42.35696],[-70.99943,42.356958],[-70.99884,42.356878],[-70.998371,42.356721],[-70.997896,42.356476],[-70.997416,42.356145],[-70.997383,42.355847],[-70.997796,42.355583],[-70.99815,42.355446],[-70.998444,42.355438],[-70.998561,42.355387],[-70.998503,42.355294],[-70.998298,42.355247],[-70.997945,42.355246],[-70.997677,42.355342],[-70.997493,42.355535],[-70.99727,42.355652],[-70.997008,42.355695],[-70.996291,42.355297],[-70.995119,42.354459],[-70.994438,42.354018],[-70.994249,42.353972],[-70.993891,42.35399],[-70.993362,42.354074],[-70.992759,42.354044],[-70.99208,42.353901],[-70.991622,42.35387],[-70.991384,42.35395],[-70.990029,42.354903],[-70.987557,42.356728],[-70.986431,42.358074],[-70.986651,42.35894],[-70.986712,42.359423],[-70.986612,42.359523],[-70.986692,42.359917],[-70.986953,42.360605],[-70.98723,42.361118],[-70.987525,42.361457],[-70.987842,42.361713],[-70.988182,42.361886],[-70.988591,42.362002],[-70.989071,42.362063],[-70.989834,42.361944],[-70.99088,42.361647],[-70.99181,42.361501],[-70.992624,42.361504],[-70.993187,42.361597],[-70.9935,42.361779],[-70.993785,42.361765],[-70.994041,42.361555],[-70.994642,42.361416],[-70.995589,42.361348],[-70.996206,42.361363],[-70.996492,42.361461],[-70.996715,42.361423],[-70.996873,42.361249],[-70.997155,42.36111],[-70.997559999999993,42.361005],[-70.997838,42.360965],[-70.997988,42.36099],[-70.998167,42.361143],[-70.998374,42.361425],[-70.998666,42.361601],[-70.999045,42.361671],[-70.99964,42.361969],[-71.000451,42.362495],[-71.001094,42.362977],[-71.001567,42.363416],[-71.001747,42.36388],[-71.001634,42.36437],[-71.003757,42.364699],[-71.008119,42.364865],[-71.009224,42.367744],[-71.007073,42.373337],[-71.004619,42.376538],[-71.00186,42.377348],[-71.001652,42.378125],[-71.003996,42.378871],[-71.005515,42.379141],[-71.006209,42.378937],[-71.006683,42.378736],[-71.006937,42.378538],[-71.007427,42.377772],[-71.008151,42.376438],[-71.008652,42.375707],[-71.008927,42.375581],[-71.008989,42.375409],[-71.008838,42.375193],[-71.009186,42.374692],[-71.010035,42.373906],[-71.010375,42.373335],[-71.010208,42.372979],[-71.010305,42.372628],[-71.010667,42.372282],[-71.011111,42.371973],[-71.011636,42.371701],[-71.012202,42.371667],[-71.012809,42.371872],[-71.013886,42.372549],[-71.01543,42.373699],[-71.016093,42.374403],[-71.015874,42.374661],[-71.015753,42.374886],[-71.015729,42.375077],[-71.016466,42.375497],[-71.017964,42.376145],[-71.018937,42.376729],[-71.019388,42.377249],[-71.018773,42.378219],[-71.017094,42.37964],[-71.016154,42.380348],[-71.015954,42.380342],[-71.015665,42.380035],[-71.015286,42.379426],[-71.014853,42.379205],[-71.014365,42.379374],[-71.013919,42.379467],[-71.013515,42.379484],[-71.013289,42.379583],[-71.013241,42.379765],[-71.013283,42.379985],[-71.013413,42.380241],[-71.013413,42.380484],[-71.013282,42.380712],[-71.013008,42.380838],[-71.012591,42.380862],[-71.012233,42.380759],[-71.011935,42.380528],[-71.011632,42.380424],[-71.011326,42.380447],[-71.010988,42.381147],[-71.010618,42.382527],[-71.010301,42.383361],[-71.010036,42.383649],[-71.009593,42.383966],[-71.008972,42.384312],[-71.008313,42.384472],[-71.007618,42.384448],[-71.006812,42.384348],[-71.005896,42.384174],[-71.005267,42.384029],[-71.004925,42.383915],[-71.004761,42.383822],[-71.004775,42.383749],[-71.00474,42.38371],[-71.004657,42.383706],[-71.004599,42.383791],[-71.004565,42.383965],[-71.00428,42.384022],[-71.003743,42.383962],[-71.003014,42.38377],[-71.002092,42.383447],[-71.000906,42.382887],[-70.999456,42.38209],[-70.998345,42.381557],[-70.997574,42.381286],[-70.996869,42.381255],[-70.996231,42.381463],[-70.995814,42.381551],[-70.995618,42.38152],[-70.995445,42.38166],[-70.995296,42.381969],[-70.995127,42.382093],[-70.994937,42.382034],[-70.99479,42.38221],[-70.994687,42.382622],[-70.994775,42.38285],[-70.995055,42.382895],[-70.995197,42.383028],[-70.995201,42.38325],[-70.995339,42.383445],[-70.99561,42.383612],[-70.99553,42.383664],[-70.995097,42.3836],[-70.994828,42.383596],[-70.994724,42.383653],[-70.994759,42.38376],[-70.994931,42.383917],[-70.994939,42.38403],[-70.994781,42.384097],[-70.994811,42.384174],[-70.99503,42.38426],[-70.99514,42.38448],[-70.99514,42.384832],[-70.99513,42.385098],[-70.99511,42.385279],[-70.995004,42.385408],[-70.994815,42.385486],[-70.994687,42.385627],[-70.994622,42.385833],[-70.994296,42.38606],[-70.99371,42.386307],[-70.992996,42.386423],[-70.992154,42.386408],[-70.991595,42.386557],[-70.991319,42.386872],[-70.99091,42.387155],[-70.990368,42.387404],[-70.989733,42.387531],[-70.989005,42.387533],[-70.988429,42.387456],[-70.988006,42.387298],[-70.987512,42.387212],[-70.986948,42.387197],[-70.986704,42.387333],[-70.98678,42.387622],[-70.987094,42.388115],[-70.987647,42.388812],[-70.987918,42.389385],[-70.98791,42.389834],[-70.987726,42.390415],[-70.987368,42.391127],[-70.987227,42.391655],[-70.987302,42.391999],[-70.987458,42.392245],[-70.987694,42.392395],[-70.988242,42.392569],[-70.989104,42.392767],[-70.989708,42.39287],[-70.990055,42.392876],[-70.99077,42.392756],[-70.99185,42.392511],[-70.992748,42.392441],[-70.993463,42.392545],[-70.993963,42.392575],[-70.994247,42.392529],[-70.994431,42.392542],[-70.994514,42.392613],[-70.994481,42.392752],[-70.994332,42.392959],[-70.994573,42.393255],[-70.995203,42.393638],[-70.99552,42.393859],[-70.995524,42.393918],[-70.995421,42.393864],[-70.995211,42.393698],[-70.995262,42.393758],[-70.995575,42.394046],[-70.995974,42.394697],[-70.996459,42.395712],[-70.997159,42.396399],[-70.998074,42.396759],[-70.99924,42.396877],[-71.000657,42.396751],[-71.002158,42.396138],[-71.003743,42.395037],[-71.004801,42.39435],[-71.005334,42.394079],[-71.005736,42.393966],[-71.006007,42.394011],[-71.006804,42.394342],[-71.008128,42.394961],[-71.009463,42.39546],[-71.01081,42.39584],[-71.011657,42.395913],[-71.012007,42.395677],[-71.012707,42.395454],[-71.01376,42.395243],[-71.014637,42.394828],[-71.015341,42.394209],[-71.015704,42.393688],[-71.015729,42.393263],[-71.015516,42.392806],[-71.015067,42.392316],[-71.015225,42.391602],[-71.015991,42.390663],[-71.016448,42.390175],[-71.016596,42.39014],[-71.01665,42.390076],[-71.01661,42.389985],[-71.016868,42.389607],[-71.017424,42.388943],[-71.017778,42.388589],[-71.01793,42.388547],[-71.018,42.388461],[-71.017988,42.388333],[-71.018374,42.387823],[-71.019159,42.386931],[-71.019643,42.386446],[-71.019827,42.386368],[-71.020175,42.386315],[-71.020689,42.386286],[-71.020968,42.3863],[-71.021012,42.386359],[-71.021303,42.386271],[-71.021841,42.386038],[-71.022149,42.385941],[-71.022228,42.385982],[-71.022394,42.385878],[-71.022647,42.385629],[-71.023262,42.385251],[-71.02424,42.384745],[-71.025301,42.384265],[-71.026447,42.383812],[-71.027086,42.383502],[-71.027219,42.383337],[-71.027264,42.383121],[-71.027221,42.382853],[-71.027512,42.38274],[-71.02814,42.382782],[-71.028592,42.38299],[-71.028867,42.383362],[-71.029238,42.38356],[-71.029704,42.383582],[-71.029974,42.383453],[-71.030048,42.383172],[-71.03024,42.383053],[-71.03055,42.383095],[-71.030863,42.383037],[-71.031179,42.382879],[-71.031673,42.382805],[-71.032345,42.382817],[-71.032851,42.38294],[-71.033191,42.383175],[-71.033402,42.38357],[-71.033483,42.384124],[-71.03394,42.384499],[-71.034772,42.384693],[-71.035238,42.384607],[-71.035338,42.384242],[-71.035497,42.38407],[-71.035715,42.38409],[-71.035905,42.3842],[-71.036069,42.384399],[-71.036282,42.384507],[-71.036544,42.384524],[-71.036709,42.38444],[-71.036776,42.384256],[-71.036898,42.384165],[-71.037074,42.384166],[-71.037183,42.384426],[-71.037224,42.384946],[-71.037263,42.384908],[-71.0373,42.384312],[-71.037571,42.384026],[-71.038078,42.384049],[-71.038355,42.384158],[-71.038402,42.384354],[-71.038487,42.384357],[-71.03861,42.384165],[-71.03872,42.384072],[-71.038819,42.384078],[-71.038903,42.384163],[-71.038973,42.384327999999996],[-71.039015,42.384298],[-71.039028,42.384072],[-71.039147,42.383957],[-71.039371,42.38395],[-71.039493,42.383794],[-71.039513,42.383486],[-71.039656,42.383352],[-71.039923,42.383391],[-71.04009,42.383486],[-71.040155,42.383638],[-71.040198,42.383454],[-71.040217,42.382934],[-71.040295,42.382674],[-71.04043,42.382674],[-71.040515,42.382579],[-71.04055,42.382388],[-71.040979,42.382261],[-71.041802,42.382195],[-71.042181,42.38181],[-71.042115,42.381105],[-71.04201,42.380695],[-71.041866,42.380579],[-71.042127,42.380499],[-71.042792,42.380455],[-71.042799,42.380431],[-71.042148,42.380426],[-71.041812,42.380303],[-71.041791,42.380063],[-71.042127,42.379903],[-71.04282,42.379824],[-71.042764,42.379799],[-71.041959,42.379828],[-71.041541,42.379744],[-71.04151,42.379548],[-71.041922,42.379408],[-71.042778,42.379324],[-71.043206,42.379252],[-71.043206,42.379193],[-71.04273,42.379171],[-71.041776,42.379184],[-71.041295,42.379153],[-71.041286,42.379079],[-71.04141,42.379002],[-71.041665,42.378923],[-71.042157,42.378865],[-71.042885,42.378827],[-71.043246,42.378764],[-71.043239,42.378677],[-71.043058,42.378646],[-71.042704,42.378671],[-71.042613,42.378668],[-71.042788,42.378637],[-71.042857,42.378444],[-71.042821,42.378089],[-71.042649,42.377918],[-71.042342,42.37793],[-71.042154,42.377818],[-71.042087,42.377579],[-71.041932,42.377429],[-71.04169,42.377365],[-71.041998,42.377252],[-71.042858,42.377088],[-71.042798,42.37701],[-71.041819,42.377018],[-71.041331,42.376923],[-71.041335,42.376725],[-71.041762,42.376639],[-71.042614,42.376665],[-71.042567,42.376622],[-71.041622,42.376511],[-71.041181,42.376294],[-71.041245,42.375972],[-71.041518,42.375853],[-71.042002,42.375939],[-71.042266,42.375932],[-71.04231,42.375833],[-71.042187,42.375738],[-71.041898,42.375647],[-71.041794,42.375459],[-71.041876,42.375175],[-71.041812,42.374968],[-71.041602,42.374838],[-71.041417,42.374614],[-71.041257,42.374295],[-71.041399,42.373973],[-71.041842,42.373646],[-71.042102,42.37342],[-71.042179,42.373293],[-71.042151,42.373207],[-71.04202,42.373161],[-71.04214,42.372967],[-71.04251,42.372626],[-71.043188,42.372624],[-71.044176,42.37296],[-71.044708,42.37308],[-71.044785,42.372983],[-71.044596,42.372823],[-71.044138,42.372599],[-71.043963,42.37241],[-71.044071,42.372256],[-71.04438,42.372257],[-71.044891,42.372413],[-71.044834,42.372336],[-71.044208,42.372026],[-71.044021,42.371837],[-71.044272,42.371769],[-71.044639,42.371841],[-71.045121,42.372051],[-71.045128,42.371994],[-71.044659,42.371671],[-71.044458,42.371465],[-71.044523,42.371379],[-71.044819,42.371427],[-71.045345,42.371611],[-71.045636,42.371657],[-71.04569,42.371567],[-71.045509,42.371473],[-71.045091,42.371374],[-71.044906,42.371125],[-71.044955,42.370723],[-71.044902,42.370492],[-71.044747,42.370432],[-71.044621,42.370444],[-71.044524,42.370528],[-71.044356,42.370512],[-71.044115,42.370394],[-71.04409,42.370177],[-71.044281,42.36986],[-71.044156,42.369652],[-71.043714,42.369553],[-71.043565,42.369435],[-71.04371,42.3693],[-71.043738,42.369213],[-71.043647,42.369174],[-71.04356,42.369235],[-71.043476,42.369396],[-71.043339,42.369436],[-71.043149,42.369356],[-71.043103,42.369251],[-71.043201,42.369121],[-71.043149,42.369029],[-71.042946,42.368975],[-71.042867,42.36888],[-71.042912,42.368744],[-71.042715,42.368661],[-71.042276,42.368631],[-71.042243,42.368351],[-71.042615,42.367824],[-71.042837,42.367422],[-71.042908,42.367146],[-71.04274,42.36711],[-71.042334,42.367314],[-71.042039,42.367375],[-71.041857,42.367293],[-71.041914,42.36704],[-71.042211,42.366616],[-71.041931,42.366252],[-71.041076,42.365949],[-71.040947,42.365447],[-71.041543,42.364747],[-71.041547,42.364258],[-71.04096,42.363979],[-71.040357,42.364183],[-71.039738,42.364869],[-71.039207,42.365148],[-71.038763,42.365018],[-71.038833,42.364576],[-71.039417,42.363823],[-71.039511,42.363356]]],[[[-70.976655,42.310432],[-70.975637,42.310433],[-70.974145,42.310703],[-70.972182,42.311243],[-70.970835,42.311999],[-70.970104,42.312973],[-70.969038,42.31354],[-70.967637,42.3137],[-70.966756,42.313876],[-70.966396,42.314068],[-70.9661,42.314654],[-70.965867,42.315635],[-70.965272,42.317063],[-70.964316,42.31894],[-70.962927,42.321204],[-70.961103,42.323856],[-70.960196,42.325304],[-70.960206,42.325547],[-70.960137,42.32579],[-70.95999,42.326032],[-70.959733,42.326328],[-70.959366,42.326677],[-70.958997,42.326927],[-70.958625,42.327079],[-70.958142,42.327439],[-70.957549,42.328008],[-70.956634,42.328553],[-70.955398,42.329074],[-70.954694,42.329492],[-70.954521,42.329806],[-70.954494,42.330125],[-70.954612,42.33045],[-70.954892,42.330695],[-70.955334,42.330858],[-70.955828,42.330962],[-70.956374,42.331006],[-70.957145,42.330939],[-70.958142,42.330763],[-70.958794,42.330413],[-70.959102,42.329888],[-70.959201,42.329591],[-70.959092,42.329523],[-70.95909,42.329418],[-70.959195,42.329274],[-70.959895,42.328616],[-70.961191,42.327442],[-70.962691,42.326524],[-70.964394,42.325861],[-70.965452,42.325635],[-70.965863,42.325844],[-70.966044,42.326006],[-70.965994,42.326123],[-70.966021,42.326204],[-70.966123,42.326249],[-70.966241,42.326214],[-70.966376,42.326097],[-70.966127,42.325817],[-70.965494,42.325373],[-70.965169,42.325101],[-70.965151,42.325002],[-70.965897,42.324391],[-70.967405,42.323268],[-70.968244,42.322583],[-70.968416,42.322337],[-70.968691,42.321733],[-70.969069,42.320771],[-70.969366,42.319753],[-70.969581,42.318678],[-70.969946,42.317791],[-70.970462,42.317091],[-70.970871,42.316366],[-70.971175,42.315616],[-70.971848,42.314584],[-70.97289,42.31327],[-70.974226,42.312229],[-70.975858,42.311462],[-70.976778,42.311],[-70.976985,42.310843],[-70.977108,42.310682],[-70.977146,42.310515],[-70.976655,42.310432]]],[[[-70.968712,42.355947],[-70.968087,42.355629],[-70.967806,42.355385],[-70.967868,42.355215],[-70.968055,42.355099],[-70.968366,42.355035],[-70.968535,42.354921],[-70.968563,42.354755],[-70.967989,42.354452],[-70.966812,42.354011],[-70.965926,42.353612],[-70.965328,42.353253],[-70.964983,42.352976],[-70.96489,42.352781],[-70.964935,42.352636],[-70.965118,42.352542],[-70.96517,42.352477],[-70.965089,42.352441],[-70.965093,42.352316],[-70.965183,42.352102],[-70.965087,42.351818],[-70.964807,42.351467],[-70.964293,42.351177],[-70.963547,42.350949],[-70.963134,42.350802],[-70.963053,42.350736],[-70.963077,42.350646],[-70.963206,42.350531],[-70.963203,42.350476],[-70.963069,42.350481],[-70.962807,42.350342],[-70.962419,42.35006],[-70.961635,42.349678],[-70.960457,42.349198],[-70.959632,42.348763],[-70.959159,42.348373],[-70.958869,42.348083],[-70.958762,42.347894],[-70.959009,42.347674],[-70.959612,42.347421],[-70.959764,42.347344],[-70.959466,42.347443],[-70.95926,42.347439],[-70.959144,42.34733],[-70.959304,42.347163],[-70.95974,42.346938],[-70.959931,42.346795],[-70.959877,42.346734],[-70.959476,42.346844],[-70.958726,42.347123],[-70.958322,42.347051],[-70.958263,42.346628],[-70.95789,42.346053],[-70.957204,42.345325],[-70.956792,42.344997],[-70.956655,42.345071],[-70.956407,42.344978],[-70.956049,42.344717],[-70.955921,42.344386],[-70.956021,42.343985],[-70.956026,42.343897],[-70.955935,42.344122],[-70.955637,42.344315],[-70.95513,42.344478],[-70.954529,42.344391],[-70.953834,42.344056],[-70.953356,42.344011],[-70.953093,42.344256],[-70.953057,42.344723],[-70.953248,42.345414],[-70.953307,42.34582],[-70.953235,42.345943],[-70.953372,42.346311],[-70.953719,42.346925],[-70.953948,42.347545],[-70.954059,42.348172],[-70.954078,42.348651],[-70.954003,42.348982],[-70.953771,42.349257],[-70.953383,42.349476],[-70.953195,42.349676],[-70.953207,42.349856],[-70.953936,42.350985],[-70.955381,42.353064],[-70.956625,42.354398],[-70.957665,42.354989],[-70.95825,42.355269],[-70.958378,42.35524],[-70.958525,42.355303],[-70.958692,42.355459],[-70.959044,42.355638],[-70.959583,42.355841],[-70.960051,42.355956],[-70.960449,42.355982],[-70.960906,42.35581],[-70.961421,42.355437],[-70.961929,42.355202],[-70.962429,42.355104],[-70.963892,42.355547],[-70.966318,42.356529],[-70.967905,42.356792],[-70.968651,42.356335],[-70.968712,42.355947]]],[[[-71.017578,42.312306],[-71.017389,42.311648],[-71.017174,42.311143],[-71.016935,42.310791],[-71.016517,42.310359],[-71.015921,42.309848],[-71.015286,42.309517],[-71.014614,42.309366],[-71.014301,42.309349],[-71.01435,42.309466],[-71.014628,42.309582],[-71.015136,42.309697],[-71.015492,42.30987],[-71.015697,42.3101],[-71.015314,42.310254],[-71.014343,42.31033],[-71.013555,42.310232],[-71.012951,42.30996],[-71.012426,42.309604],[-71.01198,42.309165],[-71.011692,42.309238],[-71.011559,42.309823],[-71.011175,42.310512],[-71.010538,42.311306],[-71.009695,42.312225],[-71.008643,42.313269],[-71.007769,42.314472],[-71.007073,42.315833],[-71.006606,42.316579],[-71.006369,42.316708],[-71.005962,42.317132],[-71.005386,42.31785],[-71.004873,42.318408],[-71.004421,42.318807],[-71.003791,42.31918],[-71.002981,42.319527],[-71.002248,42.31972],[-71.001592,42.319758],[-71.001038,42.319682],[-71.000584,42.319491],[-71.000228,42.31927],[-70.99997,42.319021],[-70.999749,42.318935],[-70.999567,42.319011],[-70.999408,42.319139],[-70.999273,42.319318],[-70.999336,42.319492],[-70.999595,42.319659],[-70.999659,42.319974],[-70.999528,42.320437],[-70.999729,42.320787],[-71.000261,42.321024],[-71.001039,42.321216],[-71.002062,42.321365],[-71.002971,42.321418],[-71.003766,42.321377],[-71.004857,42.321188],[-71.006242,42.320851],[-71.007606,42.320182],[-71.008949,42.319179],[-71.009717,42.318679],[-71.009911,42.318679],[-71.009969,42.318648],[-71.009891,42.318584],[-71.009917,42.31835],[-71.010047,42.317946],[-71.010433,42.317419],[-71.011075,42.316769],[-71.011926,42.316124],[-71.012987,42.315485],[-71.014375,42.314845],[-71.01609,42.314203],[-71.017094,42.313726],[-71.017388,42.313412],[-71.017569,42.3131],[-71.017638,42.31279],[-71.017578,42.312306]]],[[[-70.989646,42.328022],[-70.990127,42.327871],[-70.990496,42.327704],[-70.990752,42.327521],[-70.991002,42.327263],[-70.991248,42.326931],[-70.991393,42.326583],[-70.991439,42.326219],[-70.99114,42.325925],[-70.990499,42.325701],[-70.989734,42.325324],[-70.988847,42.324793],[-70.988386,42.32444],[-70.988351,42.324265],[-70.988437,42.324074],[-70.988645,42.323867],[-70.988616,42.323723],[-70.98835,42.323641],[-70.988107,42.323415],[-70.987885,42.323044],[-70.987868,42.322153],[-70.988055,42.32074],[-70.987937,42.319948],[-70.987514,42.319775],[-70.987115,42.319537],[-70.986742,42.319233],[-70.986461,42.319133],[-70.986272,42.319236],[-70.9861,42.319482],[-70.985945,42.319873],[-70.985543,42.320396],[-70.984895,42.32105],[-70.98462,42.321758],[-70.984717,42.322519],[-70.98492,42.323229],[-70.98523,42.323888],[-70.985371,42.32478],[-70.985344,42.325905],[-70.985047,42.326634],[-70.984481,42.326964],[-70.984102,42.327246],[-70.983912,42.327479],[-70.983822,42.327668],[-70.983834,42.327812],[-70.984197,42.328011],[-70.984911,42.328267],[-70.98605,42.328386],[-70.987615,42.328368],[-70.98865,42.328293],[-70.989154,42.328163],[-70.989646,42.328022]]],[[[-70.931584,42.330701],[-70.931891,42.329645],[-70.931929,42.32906],[-70.9317,42.328945],[-70.931258,42.328848],[-70.930605,42.328769],[-70.929742,42.328499],[-70.928672,42.32804],[-70.927796,42.327583],[-70.927114,42.327129],[-70.926753,42.326855],[-70.926712,42.326759],[-70.926853,42.326643],[-70.927176,42.326505],[-70.927259,42.326409],[-70.927101,42.326355],[-70.926946,42.326406],[-70.926793,42.326563],[-70.926358,42.326313],[-70.925642,42.325657],[-70.925072,42.32531],[-70.924648,42.325271],[-70.924333,42.325294],[-70.924125,42.325379],[-70.923884,42.325616],[-70.923607,42.326006],[-70.923541,42.326366],[-70.923683,42.326695],[-70.924377,42.327336],[-70.925624,42.328288],[-70.926403,42.329039],[-70.926714,42.329589],[-70.927149,42.330035],[-70.92771,42.330375],[-70.928519,42.331212],[-70.929575,42.332545],[-70.930077,42.333347],[-70.930026,42.333616],[-70.930061,42.333792],[-70.930181,42.333874],[-70.93076,42.333661],[-70.931796,42.333153],[-70.932234,42.332736],[-70.932073,42.332411],[-70.931896,42.332183],[-70.931703,42.332051],[-70.931563,42.331796],[-70.931475,42.331418],[-70.931584,42.330701]]],[[[-70.930619,42.321002],[-70.930492,42.320308],[-70.930642,42.319834],[-70.931069,42.31958],[-70.931145,42.319249],[-70.930869,42.318842],[-70.930649,42.318623],[-70.930486,42.318591],[-70.930333,42.31868],[-70.930192,42.318891],[-70.930031,42.318965],[-70.92985,42.318901],[-70.929619,42.318598],[-70.929339,42.318056],[-70.928963,42.317625],[-70.928493,42.317303],[-70.928014,42.31735],[-70.927525,42.317766],[-70.927069,42.317933],[-70.926644,42.31785],[-70.926284,42.318064],[-70.925988,42.318575],[-70.925824,42.319036],[-70.92579,42.319445],[-70.925888,42.320038],[-70.926117,42.320813],[-70.926819,42.321386],[-70.927992,42.321757],[-70.929049,42.321949],[-70.929989,42.321962],[-70.930515,42.321814],[-70.930627,42.321504],[-70.930619,42.321002]]],[[[-70.940396,42.325105],[-70.939893,42.32503],[-70.939056,42.325244],[-70.937887,42.325747],[-70.936723,42.325989],[-70.935565,42.32597],[-70.93479,42.326072],[-70.9344,42.326296],[-70.934247,42.326448],[-70.934332,42.326529],[-70.935023,42.326609],[-70.93632,42.326688],[-70.937858,42.326995],[-70.939636,42.327531],[-70.94075,42.327795],[-70.941199,42.327788],[-70.941592,42.327619],[-70.941929,42.327287],[-70.942102,42.326961],[-70.94211,42.326642],[-70.941748,42.326147],[-70.941014,42.325477],[-70.940396,42.325105]]],[[[-71.069356,42.393223],[-71.069701,42.392742],[-71.070054,42.392494],[-71.070414,42.392477],[-71.070784,42.392297],[-71.071165,42.391952],[-71.071341,42.391678],[-71.071313,42.391473],[-71.071131,42.391158],[-71.070794,42.390731],[-71.070758,42.390347],[-71.071021,42.390006],[-71.071024,42.389781],[-71.070766,42.389671],[-71.070276,42.390117],[-71.069556,42.391118],[-71.068661,42.392206],[-71.067591,42.393379],[-71.067065,42.39417],[-71.067082,42.394578],[-71.06718,42.394863],[-71.067359,42.395026],[-71.067882,42.394696],[-71.06875,42.393874],[-71.069356,42.393223]]],[[[-70.955583,42.311929],[-70.957032,42.311976],[-70.957817,42.31194],[-70.95794,42.311818],[-70.958005,42.311643],[-70.958013,42.311413],[-70.95796,42.311276],[-70.957845,42.311231],[-70.957689,42.311336],[-70.957493,42.311591],[-70.957198,42.311692],[-70.956804,42.311641],[-70.956405,42.311491],[-70.956001,42.311241],[-70.955706,42.310918],[-70.955521,42.310521],[-70.955313,42.310349],[-70.955083,42.310402],[-70.954922,42.310525],[-70.954829,42.310718],[-70.954854,42.310984],[-70.954997,42.311322],[-70.954736,42.311681],[-70.954071,42.31206],[-70.953539,42.312231],[-70.953138,42.312194],[-70.952854,42.312103],[-70.952686,42.311957],[-70.952561,42.311778],[-70.952477,42.311566],[-70.952518,42.311357],[-70.952684,42.311151],[-70.952405,42.311173],[-70.951681,42.311421],[-70.950949,42.311524],[-70.95021,42.31148],[-70.949773,42.311518],[-70.949638,42.31164],[-70.949868,42.311979],[-70.950465,42.312535],[-70.951025,42.312929],[-70.95155,42.313161],[-70.951992,42.313275],[-70.95235,42.313272],[-70.953111,42.31293],[-70.954276,42.312246],[-70.955583,42.311929]]],[[[-71.069889,42.368581],[-71.069558,42.368511],[-71.069392,42.368425],[-71.069392,42.368323],[-71.069263,42.368238],[-71.069005,42.368168],[-71.068574,42.368344],[-71.067972,42.368767],[-71.068224,42.368935],[-71.069332,42.368848],[-71.069928,42.368757],[-71.070012,42.368663],[-71.069889,42.368581]]],[[[-71.042523,42.280293],[-71.042353,42.280013],[-71.042306,42.279743],[-71.042384,42.279482],[-71.042357,42.279347],[-71.042226,42.27934],[-71.042079,42.279398],[-71.041917,42.27952],[-71.041805,42.279797],[-71.041744,42.280228],[-71.041937,42.280441],[-71.042384,42.280436],[-71.042523,42.280293]]],[[[-71.08023,42.269512],[-71.081612,42.26949],[-71.08245,42.268819],[-71.08023,42.269512]]],[[[-71.135219,42.246239],[-71.13457,42.246481],[-71.134233,42.246669],[-71.134208,42.246805],[-71.134479,42.246754],[-71.135045,42.246517],[-71.135382,42.246328],[-71.13549,42.246188],[-71.135219,42.246239]]],[[[-71.049822,42.354182],[-71.049682,42.354127],[-71.049429,42.354345],[-71.049061,42.354838],[-71.048968,42.355083],[-71.04915,42.355081],[-71.049403,42.354863],[-71.049729,42.354428],[-71.049822,42.354182]]],[[[-71.074661,42.358949],[-71.073933,42.359886],[-71.074763,42.358851],[-71.074661,42.358949]]],[[[-71.051189,42.352088],[-71.051137,42.352508],[-71.051542,42.351575],[-71.051189,42.352088]]],[[[-71.080255,42.26964],[-71.080022,42.269666],[-71.080693,42.269617],[-71.080255,42.26964]]],[[[-71.078608,42.269745],[-71.078555,42.269871],[-71.078841,42.269719],[-71.078608,42.269745]]],[[[-71.092856,42.306197],[-71.09268,42.306152],[-71.092779,42.306319],[-71.092856,42.306197]]]]},"properties":{"OBJECTID":1,"BOSTON_LAN":1,"CITY":" ","COUNTY":" ","Shape_Length":2.6554905725600877,"Shape_Area":0.013661469288491851,"shape_wkt":null}}]}